{
  "type": "FeatureCollection",
  "features": [
    {
      "type": "Feature",
      "properties": {
        "norad_id": 45358,
        "name": "COSMOS 2545 (760)",
        "group": "gnss",
        "lat": -18.03700644669334,
        "lon": -49.752829684915824,
        "alt_km": 19133.43012604888,
        "timestamp": "2025-12-05T20:43:02.301411+00:00",
        "meta_object_name": "COSMOS 2545 (760)",
        "meta_object_id": "2020-018A",
        "meta_epoch": "2025-12-01T04:43:25.038912",
        "meta_mean_motion": 2.13102323,
        "meta_eccentricity": 0.00119194,
        "meta_inclination": 64.4762,
        "meta_ra_of_asc_node": 319.3749,
        "meta_arg_of_pericenter": 248.338,
        "meta_mean_anomaly": 111.5456,
        "meta_ephemeris_type": 0,
        "meta_classification_type": "U",
        "meta_norad_cat_id": 45358,
        "meta_element_set_no": 999,
        "meta_rev_at_epoch": 4444,
        "meta_bstar": 0,
        "meta_mean_motion_dot": -2.8e-07,
        "meta_mean_motion_ddot": 0,
        "tle_line1": "1 45358U 20018A   25335.19681758 -.00000028  00000+0  00000+0 0  9998",
        "tle_line2": "2 45358  64.4762 319.3749 0011919 248.3380 111.5456  2.13102323 44447"
      },
      "geometry": {
        "type": "Point",
        "coordinates": [
          -49.752829684915824,
          -18.03700644669334
        ]
      }
    },
    {
      "type": "Feature",
      "properties": {
        "norad_id": 45807,
        "name": "BEIDOU-3 G3 (C61)",
        "group": "gnss",
        "lat": 1.858243576810634,
        "lon": 136.1602073041254,
        "alt_km": 35800.082289368285,
        "timestamp": "2025-12-05T20:43:02.301424+00:00",
        "meta_object_name": "BEIDOU-3 G3 (C61)",
        "meta_object_id": "2020-040A",
        "meta_epoch": "2025-12-05T07:22:27.344352",
        "meta_mean_motion": 1.00265618,
        "meta_eccentricity": 0.00050937,
        "meta_inclination": 1.9721,
        "meta_ra_of_asc_node": 66.5517,
        "meta_arg_of_pericenter": 303.8384,
        "meta_mean_anomaly": 285.0644,
        "meta_ephemeris_type": 0,
        "meta_classification_type": "U",
        "meta_norad_cat_id": 45807,
        "meta_element_set_no": 999,
        "meta_rev_at_epoch": 2012,
        "meta_bstar": 0,
        "meta_mean_motion_dot": -3.43e-06,
        "meta_mean_motion_ddot": 0,
        "tle_line1": "1 45807U 20040A   25339.30726093 -.00000343  00000+0  00000+0 0  9991",
        "tle_line2": "2 45807   1.9721  66.5517 0005093 303.8384 285.0644  1.00265618 20125"
      },
      "geometry": {
        "type": "Point",
        "coordinates": [
          136.1602073041254,
          1.858243576810634
        ]
      }
    },
    {
      "type": "Feature",
      "properties": {
        "norad_id": 45854,
        "name": "GPS BIII-3  (PRN 23)",
        "group": "gnss",
        "lat": 45.59352507067598,
        "lon": 78.88417760013449,
        "alt_km": 20306.884979045895,
        "timestamp": "2025-12-05T20:43:02.301436+00:00",
        "meta_object_name": "GPS BIII-3  (PRN 23)",
        "meta_object_id": "2020-041A",
        "meta_epoch": "2025-12-05T00:44:21.679872",
        "meta_mean_motion": 2.00561656,
        "meta_eccentricity": 0.00602963,
        "meta_inclination": 56.5415,
        "meta_ra_of_asc_node": 36.4861,
        "meta_arg_of_pericenter": 203.0901,
        "meta_mean_anomaly": 335.2174,
        "meta_ephemeris_type": 0,
        "meta_classification_type": "U",
        "meta_norad_cat_id": 45854,
        "meta_element_set_no": 999,
        "meta_rev_at_epoch": 4014,
        "meta_bstar": 0,
        "meta_mean_motion_dot": -6.7e-07,
        "meta_mean_motion_ddot": 0,
        "tle_line1": "1 45854U 20041A   25339.03080648 -.00000067  00000+0  00000+0 0  9996",
        "tle_line2": "2 45854  56.5415  36.4861 0060296 203.0901 335.2174  2.00561656 40145"
      },
      "geometry": {
        "type": "Point",
        "coordinates": [
          78.88417760013449,
          45.59352507067598
        ]
      }
    },
    {
      "type": "Feature",
      "properties": {
        "norad_id": 46114,
        "name": "GALAXY 30 (WAAS/PRN 135)",
        "group": "gnss",
        "lat": -0.039728674275153295,
        "lon": -99.33781873205322,
        "alt_km": 35776.23042619326,
        "timestamp": "2025-12-05T20:43:02.301447+00:00",
        "meta_object_name": "GALAXY 30 (WAAS/PRN 135)",
        "meta_object_id": "2020-056C",
        "meta_epoch": "2025-12-04T23:24:17.216064",
        "meta_mean_motion": 1.00269865,
        "meta_eccentricity": 0.0002477,
        "meta_inclination": 0.0163,
        "meta_ra_of_asc_node": 332.4397,
        "meta_arg_of_pericenter": 277.9975,
        "meta_mean_anomaly": 49.6774,
        "meta_ephemeris_type": 0,
        "meta_classification_type": "U",
        "meta_norad_cat_id": 46114,
        "meta_element_set_no": 999,
        "meta_rev_at_epoch": 1934,
        "meta_bstar": 0,
        "meta_mean_motion_dot": 5e-07,
        "meta_mean_motion_ddot": 0,
        "tle_line1": "1 46114U 20056C   25338.97519926  .00000050  00000+0  00000+0 0  9991",
        "tle_line2": "2 46114   0.0163 332.4397 0002477 277.9975  49.6774  1.00269865 19346"
      },
      "geometry": {
        "type": "Point",
        "coordinates": [
          -99.33781873205322,
          -0.039728674275153295
        ]
      }
    },
    {
      "type": "Feature",
      "properties": {
        "norad_id": 46805,
        "name": "COSMOS 2547 (705K)",
        "group": "gnss",
        "lat": -14.07325419319151,
        "lon": 25.771369213250715,
        "alt_km": 19119.047010078888,
        "timestamp": "2025-12-05T20:43:02.301458+00:00",
        "meta_object_name": "COSMOS 2547 (705K)",
        "meta_object_id": "2020-075A",
        "meta_epoch": "2025-12-04T04:48:34.576416",
        "meta_mean_motion": 2.13099889,
        "meta_eccentricity": 0.0006264,
        "meta_inclination": 64.5958,
        "meta_ra_of_asc_node": 198.9817,
        "meta_arg_of_pericenter": 229.2044,
        "meta_mean_anomaly": 130.8379,
        "meta_ephemeris_type": 0,
        "meta_classification_type": "U",
        "meta_norad_cat_id": 46805,
        "meta_element_set_no": 999,
        "meta_rev_at_epoch": 3975,
        "meta_bstar": 0,
        "meta_mean_motion_dot": 1.01e-06,
        "meta_mean_motion_ddot": 0,
        "tle_line1": "1 46805U 20075A   25338.20040019  .00000101  00000+0  00000+0 0  9994",
        "tle_line2": "2 46805  64.5958 198.9817 0006264 229.2044 130.8379  2.13099889 39750"
      },
      "geometry": {
        "type": "Point",
        "coordinates": [
          25.771369213250715,
          -14.07325419319151
        ]
      }
    },
    {
      "type": "Feature",
      "properties": {
        "norad_id": 46826,
        "name": "GPS BIII-4  (PRN 14)",
        "group": "gnss",
        "lat": 23.84738283926599,
        "lon": -122.65412278105308,
        "alt_km": 20348.639301443753,
        "timestamp": "2025-12-05T20:43:02.301473+00:00",
        "meta_object_name": "GPS BIII-4  (PRN 14)",
        "meta_object_id": "2020-078A",
        "meta_epoch": "2025-11-12T03:01:29.190720",
        "meta_mean_motion": 2.00567032,
        "meta_eccentricity": 0.0063911,
        "meta_inclination": 54.0223,
        "meta_ra_of_asc_node": 219.5836,
        "meta_arg_of_pericenter": 203.4986,
        "meta_mean_anomaly": 326.7754,
        "meta_ephemeris_type": 0,
        "meta_classification_type": "U",
        "meta_norad_cat_id": 46826,
        "meta_element_set_no": 999,
        "meta_rev_at_epoch": 3715,
        "meta_bstar": 0,
        "meta_mean_motion_dot": -3.4e-07,
        "meta_mean_motion_ddot": 0,
        "tle_line1": "1 46826U 20078A   25316.12603230 -.00000034  00000+0  00000+0 0  9993",
        "tle_line2": "2 46826  54.0223 219.5836 0063911 203.4986 326.7754  2.00567032 37155"
      },
      "geometry": {
        "type": "Point",
        "coordinates": [
          -122.65412278105308,
          23.84738283926599
        ]
      }
    },
    {
      "type": "Feature",
      "properties": {
        "norad_id": 48859,
        "name": "GPS BIII-5  (PRN 11)",
        "group": "gnss",
        "lat": -28.721092697358408,
        "lon": -177.4212473647357,
        "alt_km": 20124.219136693417,
        "timestamp": "2025-12-05T20:43:02.301496+00:00",
        "meta_object_name": "GPS BIII-5  (PRN 11)",
        "meta_object_id": "2021-054A",
        "meta_epoch": "2025-11-30T17:12:22.002912",
        "meta_mean_motion": 2.00553932,
        "meta_eccentricity": 0.0024653,
        "meta_inclination": 55.2606,
        "meta_ra_of_asc_node": 340.4377,
        "meta_arg_of_pericenter": 232.9477,
        "meta_mean_anomaly": 227.2059,
        "meta_ephemeris_type": 0,
        "meta_classification_type": "U",
        "meta_norad_cat_id": 48859,
        "meta_element_set_no": 999,
        "meta_rev_at_epoch": 3277,
        "meta_bstar": 0,
        "meta_mean_motion_dot": -5.5e-07,
        "meta_mean_motion_ddot": 0,
        "tle_line1": "1 48859U 21054A   25334.71692133 -.00000055  00000+0  00000+0 0  9994",
        "tle_line2": "2 48859  55.2606 340.4377 0024653 232.9477 227.2059  2.00553932 32777"
      },
      "geometry": {
        "type": "Point",
        "coordinates": [
          -177.4212473647357,
          -28.721092697358408
        ]
      }
    }
  ]
}